{"type":"FeatureCollection","features":[{"type":"Feature","id":153161,"geometry":{"type":"LineString","coordinates":[[-41.430314128893194,-13.013004008412631],[-41.428269688394664,-13.009846827753378],[-41.426636887381726,-13.00827686596913],[-41.415555113776747,-13.00291068956138],[-41.402135033604168,-12.999006221744564],[-41.397557246968631,-12.996891797803103],[-41.39296828265941,-12.993765652747653]]},"properties":{"OBJECTID":153161,"NORIOCOMP":"Rio Paraguaçu","COCURSODAG":"77478","COBACIA":"7747853","DEDOMINIAL":"Estadual"}},{"type":"Feature","id":153162,"geometry":{"type":"LineString","coordinates":[[-39.049368854987904,-12.530471229462457],[-39.04841627329165,-12.532005467477051],[-39.046305461926799,-12.535404596343657],[-39.017744724938375,-12.555271970223293],[-38.999117392053279,-12.57451875343517],[-38.987322354442369,-12.590661050863789],[-38.960004970652108,-12.619222937184936],[-38.945722689749573,-12.644055837702121],[-38.935789328813712,-12.671995463314504],[-38.932398877505477,-12.689528623441227],[-38.932287636764272,-12.690103887378481]]},"properties":{"OBJECTID":153162,"NORIOCOMP":"Rio Paraguaçu","COCURSODAG":"774","COBACIA":"774191","DEDOMINIAL":"Estadual"}},{"type":"Feature","id":153163,"geometry":{"type":"LineString","coordinates":[[-40.867665734685147,-13.004368672261059],[-40.867488939662117,-13.00451733019529],[-40.865838497547884,-13.005905859152669],[-40.860814026645301,-13.0101275412375],[-40.857007291752382,-13.012176440574686],[-40.853482299168036,-13.012634259347992],[-40.839352779806234,-13.010437045617632],[-40.833779387008349,-13.011776459900133],[-40.825589394234449,-13.017460391068468],[-40.82486818921484,-13.019051561564535],[-40.820488780432129,-13.02297655280978],[-40.81183705053872,-13.025779340328347],[-40.802475903939069,-13.032193829465493],[-40.794987496574947,-13.033258289522255],[-40.790161894555069,-13.036752801384392],[-40.786644610059966,-13.038076142083927],[-40.776627346873802,-13.035698892173878],[-40.77308342895634,-13.033852796253328],[-40.767346188674928,-13.03317333956179],[-40.764855082795123,-13.034489474893119],[-40.760330555809787,-13.038557798287389],[-40.756947243319871,-13.038584460488085],[-40.750748313583074,-13.035456729927853],[-40.740429321555212,-13.031495039148611],[-40.736208170070256,-13.028552303629844],[-40.735406576451616,-13.027993439729434],[-40.73521341196863,-13.027858767152358],[-40.735107613924519,-13.027785005657474]]},"properties":{"OBJECTID":153163,"NORIOCOMP":"Rio Paraguaçu","COCURSODAG":"774","COBACIA":"7747593","DEDOMINIAL":"Estadual"}},{"type":"Feature","id":153164,"geometry":{"type":"LineString","coordinates":[[-41.402215831394763,-13.575072977503719],[-41.396501397920417,-13.578157437183686],[-41.381162365050386,-13.59142807611217],[-41.37661181977893,-13.593202532937841],[-41.372770087768572,-13.592230836151481],[-41.364663934292416,-13.582066420496522],[-41.355844418784159,-13.565294092216719],[-41.34717708745189,-13.553556254186201],[-41.344144283930802,-13.545225118213351],[-41.34495316565534,-13.537863416332522],[-41.347714799297826,-13.533945567502993],[-41.35059487545243,-13.527285561648586],[-41.350858182558341,-13.524399425862153],[-41.349828157542667,-13.509993249858345],[-41.348264209524935,-13.5010704364215],[-41.347913124090667,-13.495450423668263],[-41.348893618944601,-13.490395925302002],[-41.35177367621344,-13.484024258283377],[-41.35763317123314,-13.466091386379384],[-41.357720934272955,-13.460323543967553],[-41.356930902338547,-13.455141321186357],[-41.354817566576685,-13.449828485367814],[-41.349258916365159,-13.441298332124113],[-41.34829439616874,-13.439818207216296],[-41.34824860628742,-13.439747953077386]]},"properties":{"OBJECTID":153164,"NORIOCOMP":"Rio Paraguaçu","COCURSODAG":"77478","COBACIA":"7747895","DEDOMINIAL":"Estadual"}},{"type":"Feature","id":153121,"geometry":{"type":"LineString","coordinates":[[-40.920003354970113,-13.039072620588607],[-40.919885207435641,-13.038684574816941],[-40.918645581927308,-13.034613135271732],[-40.917382782688549,-13.024534761354186],[-40.913964938030745,-13.019659768567676],[-40.911336599203935,-13.017157525483691],[-40.904496548176439,-13.012815262298895],[-40.903169329600132,-13.012103611676743],[-40.901994317682863,-13.011969146843093],[-40.886899224119134,-13.000122492643694],[-40.884095320541867,-12.998847447336658],[-40.879533067896034,-12.998019151947171],[-40.874840792168072,-12.999640863419929],[-40.8701601680566,-13.002272522543576],[-40.868246948537092,-13.003880225276868],[-40.867897057402558,-13.004174241532715],[-40.867665734685147,-13.004368672261059]]},"properties":{"OBJECTID":153121,"NORIOCOMP":"Rio Paraguaçu","COCURSODAG":"774","COBACIA":"7747595","DEDOMINIAL":"Estadual"}},{"type":"Feature","id":153122,"geometry":{"type":"LineString","coordinates":[[-39.24479741446833,-12.541664389498392],[-39.244556596708833,-12.541611965318378],[-39.239208617183181,-12.540447725480613],[-39.216190621399335,-12.533918780525985],[-39.212272770770994,-12.524124348658741],[-39.204765509120186,-12.514659299786098],[-39.189422610963966,-12.504537598331027],[-39.173755808483008,-12.502579842585263],[-39.150901753712212,-12.497683750804178],[-39.135886611677051,-12.496705435007602]]},"properties":{"OBJECTID":153122,"NORIOCOMP":"Rio Paraguaçu","COCURSODAG":"774","COBACIA":"77433","DEDOMINIAL":"Estadual"}},{"type":"Feature","id":153123,"geometry":{"type":"LineString","coordinates":[[-39.919484449047332,-12.515530097135493],[-39.912725042925672,-12.512816761583549],[-39.907899428315197,-12.511755137988551],[-39.904656597123505,-12.512705096362421],[-39.896607655817945,-12.517346814003391],[-39.890885375758728,-12.517511806323929],[-39.886918156846718,-12.515364039118341],[-39.883824792079736,-12.512638465592028],[-39.881917006264075,-12.51192402347421],[-39.875607478801385,-12.511512901998149],[-39.873982515380021,-12.509214087359661],[-39.872807019627487,-12.508485176948753],[-39.872365289725622,-12.508211238956916]]},"properties":{"OBJECTID":153123,"NORIOCOMP":"Rio Paraguaçu","COCURSODAG":"774","COBACIA":"77455","DEDOMINIAL":"Estadual"}},{"type":"Feature","id":153124,"geometry":{"type":"LineString","coordinates":[[-41.444207661653529,-13.059097565583224],[-41.441938134336681,-13.05136867230966],[-41.438649810039976,-13.046358112120618],[-41.433148616614631,-13.040358618738868],[-41.431466378070176,-13.03432082952645],[-41.432900882169236,-13.017007950241016],[-41.431099631841789,-13.01421986393993],[-41.430792993601017,-13.01374523054232],[-41.430314128893194,-13.013004008412631]]},"properties":{"OBJECTID":153124,"NORIOCOMP":"Rio Paraguaçu","COCURSODAG":"77478","COBACIA":"7747871","DEDOMINIAL":"Estadual"}},{"type":"Feature","id":153125,"geometry":{"type":"LineString","coordinates":[[-38.858740014139585,-12.804886761305555],[-38.858732697255448,-12.804906160581412],[-38.858446261385104,-12.805665601177129],[-38.856222220878067,-12.811561837099489],[-38.852399398013056,-12.819775215843661],[-38.848558291930885,-12.831559719695111],[-38.835519332750266,-12.843978189830988],[-38.825799798221396,-12.839936430611345],[-38.812547486576477,-12.845219856800307],[-38.808320801563013,-12.836319273705177],[-38.802950072786871,-12.83659812918996],[-38.802950038612664,-12.836598130988605],[-38.802949652803477,-12.836598151673011]]},"properties":{"OBJECTID":153125,"NORIOCOMP":"Rio Paraguaçu","COCURSODAG":"774","COBACIA":"774111","DEDOMINIAL":"Estadual"}},{"type":"Feature","id":153126,"geometry":{"type":"LineString","coordinates":[[-41.350963923045867,-12.846714426618853],[-41.350270863209062,-12.8467110442686],[-41.340771053740411,-12.84666446658121],[-41.33255434840374,-12.84760948587839],[-41.325935946985631,-12.846954487149207],[-41.324310333354447,-12.845814992157516],[-41.316544975269665,-12.837299829712997],[-41.316208448060706,-12.836930762334422],[-41.315841980622167,-12.836528861607301]]},"properties":{"OBJECTID":153126,"NORIOCOMP":"Rio Paraguaçu","COCURSODAG":"77478","COBACIA":"7747831","DEDOMINIAL":"Estadual"}},{"type":"Feature","id":153127,"geometry":{"type":"LineString","coordinates":[[-41.357540796469834,-12.954897757911304],[-41.357869094882062,-12.953746627491007],[-41.357674102077389,-12.948990472018945],[-41.35875798119514,-12.939902106883281],[-41.361748541761074,-12.930356472460071],[-41.365776903780322,-12.92195647449879],[-41.366909661950615,-12.917621979657893],[-41.366253566048492,-12.910998045610732],[-41.366669658077512,-12.908541373872799],[-41.372845210837063,-12.894641363296202],[-41.372452471503607,-12.884843469938399],[-41.359574010731251,-12.861187240587604],[-41.356693991233954,-12.852277762298058],[-41.353775597664992,-12.84833334839459],[-41.352268101890672,-12.847465382110983],[-41.351448306893133,-12.8469933387609],[-41.351214178290945,-12.846858525889607],[-41.350963923045867,-12.846714426618853]]},"properties":{"OBJECTID":153127,"NORIOCOMP":"Rio Paraguaçu","COCURSODAG":"77478","COBACIA":"7747833","DEDOMINIAL":"Estadual"}},{"type":"Feature","id":153128,"geometry":{"type":"LineString","coordinates":[[-40.5237565872959,-12.960566638025879],[-40.523420663532079,-12.960376718296892],[-40.522878133118638,-12.960069990123928],[-40.522521924246689,-12.959868601340862],[-40.52103657337841,-12.959028836897305],[-40.517660423988616,-12.959193287825947],[-40.51473485203104,-12.961229425783308],[-40.513426512023159,-12.963543871538322],[-40.511208203794816,-12.963967116774867],[-40.511076480094744,-12.963992249228776]]},"properties":{"OBJECTID":153128,"NORIOCOMP":"Rio Paraguaçu","COCURSODAG":"774","COBACIA":"7747535","DEDOMINIAL":"Estadual"}},{"type":"Feature","id":153129,"geometry":{"type":"LineString","coordinates":[[-41.05373250455068,-12.92504912160666],[-41.049273014737082,-12.923962446496747],[-41.046137416008207,-12.920407451629751],[-41.04565298269825,-12.915367917982337],[-41.044142371672365,-12.910624590439935],[-41.042524666679299,-12.910492918900536],[-41.036848448996011,-12.916883521144843],[-41.034063462657912,-12.917772422746326],[-41.032881200406337,-12.916773022344339],[-41.032572350732664,-12.915332993709974],[-41.030296466108268,-12.911681670659961],[-41.030230067362993,-12.911575172943284],[-41.02804394497133,-12.911512375982793]]},"properties":{"OBJECTID":153129,"NORIOCOMP":"Rio Paraguaçu","COCURSODAG":"774","COBACIA":"7747599","DEDOMINIAL":"Estadual"}},{"type":"Feature","id":153130,"geometry":{"type":"LineString","coordinates":[[-39.599734429199827,-12.563416262148584],[-39.583609355586532,-12.552852424298058],[-39.574141549392266,-12.545996798811503],[-39.565329251842748,-12.545996858166776],[-39.550639150875384,-12.547630122330505],[-39.543455747683872,-12.553831873240448],[-39.538233513165387,-12.566561948572746],[-39.536619891993666,-12.577190067265182],[-39.536418958267568,-12.578513319831162],[-39.536177382379549,-12.580104218731979]]},"properties":{"OBJECTID":153130,"NORIOCOMP":"Rio Paraguaçu","COCURSODAG":"774","COBACIA":"774393","DEDOMINIAL":"Estadual"}},{"type":"Feature","id":153131,"geometry":{"type":"LineString","coordinates":[[-41.249797551115357,-12.796921005490843],[-41.249532177367371,-12.796996219390847],[-41.24926799342245,-12.797071135615223],[-41.248755043509739,-12.797216593761606],[-41.247703173062234,-12.797514875501895],[-41.246547582903872,-12.799254354995222],[-41.245818647311978,-12.802267123419663],[-41.243861978846496,-12.806360426383092],[-41.239639175306934,-12.809859412372431],[-41.23193303667955,-12.818291667216821],[-41.228560773260362,-12.818899429954874],[-41.226794668438458,-12.818482819916412],[-41.224704104410129,-12.81518775520103],[-41.222514613158125,-12.801081004875176],[-41.219814025496134,-12.795050474090994],[-41.21594183974338,-12.789322653308824],[-41.21075005267204,-12.78403594279574],[-41.205287245009629,-12.781058210159543],[-41.198809984092755,-12.779530431975161],[-41.191764398407543,-12.779741578402472],[-41.184451545002048,-12.783122097597934],[-41.181224304457373,-12.783296539095206],[-41.17974038261184,-12.782013225421268],[-41.179373751496712,-12.774085948898907],[-41.186053233968835,-12.766098117425885],[-41.186461510889274,-12.762635908312342],[-41.185565423704588,-12.761057612510662],[-41.183062644624606,-12.760214735513568],[-41.179187669174837,-12.760523420611261],[-41.178954246540513,-12.760542012295955],[-41.178523985692657,-12.760979898495394],[-41.170950818124993,-12.768686514662578],[-41.168761438388913,-12.769856501168194],[-41.167586377008952,-12.769868188757533],[-41.164113459667703,-12.766825328118086],[-41.163548667436316,-12.766330420404294],[-41.163458605729318,-12.766251502196781]]},"properties":{"OBJECTID":153131,"NORIOCOMP":"Rio Paraguaçu","COCURSODAG":"774","COBACIA":"774775","DEDOMINIAL":"Estadual"}},{"type":"Feature","id":153132,"geometry":{"type":"LineString","coordinates":[[-40.545344012615374,-12.989578424589716],[-40.543574010131749,-12.988435062513243],[-40.541201166899612,-12.985422301283425],[-40.533366080779274,-12.978408922119465],[-40.528132174859259,-12.965181085524483],[-40.525504618442653,-12.961700647153062],[-40.525316597182496,-12.961451603294792],[-40.524758910494597,-12.961135210107791],[-40.5237565872959,-12.960566638025879]]},"properties":{"OBJECTID":153132,"NORIOCOMP":"Rio Paraguaçu","COCURSODAG":"774","COBACIA":"7747537","DEDOMINIAL":"Estadual"}},{"type":"Feature","id":153133,"geometry":{"type":"LineString","coordinates":[[-40.360711258517028,-12.787155385203967],[-40.360272541343988,-12.787017935520403],[-40.359553903888809,-12.786792789346872],[-40.358266396676129,-12.786389418228195],[-40.354382384838459,-12.785172607620895],[-40.351151775433379,-12.784902640135915],[-40.349530125114427,-12.784047034134499],[-40.346280116433491,-12.780317626548516],[-40.346085642537616,-12.772102531897859],[-40.344433939573889,-12.766058070615205],[-40.343481947832913,-12.764813015899721],[-40.343316767554029,-12.764596985254446],[-40.342873354121252,-12.764016978292723]]},"properties":{"OBJECTID":153133,"NORIOCOMP":"Rio Paraguaçu","COCURSODAG":"774","COBACIA":"7747511","DEDOMINIAL":"Estadual"}},{"type":"Feature","id":153134,"geometry":{"type":"LineString","coordinates":[[-39.628333605910427,-12.580599651649846],[-39.627818154983117,-12.58122981919802],[-39.622458581397666,-12.587780855998774],[-39.6139712844465,-12.589087537656775],[-39.605807314455262,-12.587129732448256],[-39.604175085411107,-12.577662448760339],[-39.600068323193796,-12.564487409564025],[-39.600061581875764,-12.56446578176813],[-39.599734429199827,-12.563416262148584]]},"properties":{"OBJECTID":153134,"NORIOCOMP":"Rio Paraguaçu","COCURSODAG":"774","COBACIA":"77451","DEDOMINIAL":"Estadual"}},{"type":"Feature","id":153135,"geometry":{"type":"LineString","coordinates":[[-40.670474884407668,-13.002604443425051],[-40.670376579514823,-13.002629319572147],[-40.668964374105819,-13.002986680475619],[-40.668499478567355,-13.002695203905239],[-40.661975362971873,-12.998604960435424],[-40.658145361718312,-12.997045503631938],[-40.654029251048371,-12.996447696388987]]},"properties":{"OBJECTID":153135,"NORIOCOMP":"Rio Paraguaçu","COCURSODAG":"774","COBACIA":"7747571","DEDOMINIAL":"Estadual"}},{"type":"Feature","id":153165,"geometry":{"type":"LineString","coordinates":[[-40.724571388857782,-13.014671079890791],[-40.724360310778991,-13.014526284544752],[-40.723765304924143,-13.014118123636853],[-40.72335225620094,-13.013834780535076],[-40.721763597511256,-13.012744951502736],[-40.717640215822541,-13.011621609234332],[-40.710590189285085,-13.012536057877206],[-40.70619184977329,-13.014298308204696],[-40.700340134788632,-13.018087243715598],[-40.694473416414318,-13.019858367653718],[-40.690643398073632,-13.019018938657323],[-40.683959132107532,-13.013579967525851],[-40.683885457846884,-13.013520017818955],[-40.683277250843723,-13.013025031864123]]},"properties":{"OBJECTID":153165,"NORIOCOMP":"Rio Paraguaçu","COCURSODAG":"774","COBACIA":"77475911","DEDOMINIAL":"Estadual"}},{"type":"Feature","id":153166,"geometry":{"type":"LineString","coordinates":[[-38.932287636764272,-12.690103887378481],[-38.931990074481632,-12.691645558289846],[-38.930872050803771,-12.697437816395899],[-38.927889275668804,-12.706424396262396],[-38.927492599103402,-12.707619512523969]]},"properties":{"OBJECTID":153166,"NORIOCOMP":"Rio Paraguaçu","COCURSODAG":"774","COBACIA":"77417","DEDOMINIAL":"Estadual"}},{"type":"Feature","id":153167,"geometry":{"type":"LineString","coordinates":[[-40.417962978607818,-12.879078559316442],[-40.417889727028523,-12.879069902442433],[-40.416087702384793,-12.878856931290738],[-40.406346754098706,-12.877705192928701],[-40.40060173468158,-12.875430848843102],[-40.396764455214679,-12.872570819476287],[-40.396611641513296,-12.871275774146289],[-40.393636075343863,-12.865525746404851],[-40.390824974492261,-12.861650153120934],[-40.385087673956257,-12.860818521246681],[-40.38218045806093,-12.85886739530301],[-40.381238202380416,-12.855282405347809],[-40.381478778222295,-12.853745161798896],[-40.382402092381945,-12.853000171509887],[-40.386506548737486,-12.852304038689624],[-40.388993845089146,-12.850704552162593],[-40.389268237238639,-12.84724454099209],[-40.384808782498567,-12.838476728407851],[-40.38240926447525,-12.83027501746793],[-40.376344258180211,-12.822959445412113],[-40.374100902034286,-12.81605275012458],[-40.373620343003665,-12.809425508370985],[-40.372731408127265,-12.808130526892795],[-40.37078196661372,-12.801656042183289],[-40.367516932959347,-12.79562209487464],[-40.3644073866908,-12.791458187936021],[-40.361469355525571,-12.788037939390479],[-40.360711258517028,-12.787155385203967]]},"properties":{"OBJECTID":153167,"NORIOCOMP":"Rio Paraguaçu","COCURSODAG":"774","COBACIA":"7747513","DEDOMINIAL":"Estadual"}},{"type":"Feature","id":153168,"geometry":{"type":"LineString","coordinates":[[-39.980703320601037,-12.56227360693924],[-39.980550627408775,-12.562234081735307],[-39.979731485319064,-12.562022062066326],[-39.979546637766362,-12.561974218133461],[-39.979458250597077,-12.56195134117929],[-39.976045512289829,-12.56106805584395],[-39.960403880933598,-12.554821705755149],[-39.959852092899041,-12.554601354766756]]},"properties":{"OBJECTID":153168,"NORIOCOMP":"Rio Paraguaçu","COCURSODAG":"774","COBACIA":"774715","DEDOMINIAL":"Estadual"}},{"type":"Feature","id":153169,"geometry":{"type":"LineString","coordinates":[[-41.391587522045768,-13.259459770728938],[-41.392869223235323,-13.255123659806275],[-41.392094732485191,-13.251239152442299],[-41.392034186527724,-13.245474162679974],[-41.392731950718201,-13.241862425987803],[-41.397755832564883,-13.229702945312644],[-41.402639543379507,-13.222504900259144],[-41.402684285550613,-13.222438935886386],[-41.402974804342996,-13.222010619372806]]},"properties":{"OBJECTID":153169,"NORIOCOMP":"Rio Paraguaçu","COCURSODAG":"77478","COBACIA":"7747891","DEDOMINIAL":"Estadual"}},{"type":"Feature","id":153170,"geometry":{"type":"LineString","coordinates":[[-41.39296828265941,-12.993765652747653],[-41.392970279154326,-12.993681846724837],[-41.392993603970922,-12.992703007522756],[-41.393359518326349,-12.977322058151895],[-41.393379926641558,-12.976463326107092],[-41.392812736817625,-12.974646625426949],[-41.392617110890221,-12.974020038979145]]},"properties":{"OBJECTID":153170,"NORIOCOMP":"Rio Paraguaçu","COCURSODAG":"77478","COBACIA":"7747851","DEDOMINIAL":"Estadual"}},{"type":"Feature","id":153171,"geometry":{"type":"LineString","coordinates":[[-40.735107613924519,-13.027785005657474],[-40.727379228767632,-13.016596663289661],[-40.725022186623903,-13.014980202958327],[-40.724571388857782,-13.014671079890791]]},"properties":{"OBJECTID":153171,"NORIOCOMP":"Rio Paraguaçu","COCURSODAG":"774","COBACIA":"77475913","DEDOMINIAL":"Estadual"}},{"type":"Feature","id":153172,"geometry":{"type":"LineString","coordinates":[[-39.316662989204872,-12.544972681442401],[-39.313645687297878,-12.544158738333435],[-39.303517337154638,-12.54142596573416],[-39.291763928261958,-12.539142609542294],[-39.285622205299774,-12.539552817307184],[-39.284409426353193,-12.539633819243864]]},"properties":{"OBJECTID":153172,"NORIOCOMP":"Rio Paraguaçu","COCURSODAG":"774","COBACIA":"774353","DEDOMINIAL":"Estadual"}},{"type":"Feature","id":153173,"geometry":{"type":"LineString","coordinates":[[-39.284409426353193,-12.539633819243864],[-39.284270705028291,-12.539643073267698],[-39.272179346199152,-12.54044766162874],[-39.254223643205819,-12.54371272675932],[-39.247283805202699,-12.542204753445017],[-39.246692733881844,-12.542076317666361],[-39.24479741446833,-12.541664389498392]]},"properties":{"OBJECTID":153173,"NORIOCOMP":"Rio Paraguaçu","COCURSODAG":"774","COBACIA":"774351","DEDOMINIAL":"Estadual"}},{"type":"Feature","id":153174,"geometry":{"type":"LineString","coordinates":[[-39.93210020705817,-12.544997480247844],[-39.928369037700179,-12.536538531726453],[-39.923940105051088,-12.529637927547132],[-39.922879539058727,-12.521427365479573],[-39.920335285943963,-12.517008053777813],[-39.919936052605976,-12.516314560467777],[-39.919649858653315,-12.515817423334639],[-39.919484449047332,-12.515530097135493]]},"properties":{"OBJECTID":153174,"NORIOCOMP":"Rio Paraguaçu","COCURSODAG":"774","COBACIA":"774711","DEDOMINIAL":"Estadual"}},{"type":"Feature","id":153175,"geometry":{"type":"LineString","coordinates":[[-40.043058755356526,-12.564359081704012],[-40.042911301614538,-12.56422655041273],[-40.036070396231082,-12.558077971918813],[-40.026335282746345,-12.555565193277083],[-40.019266383036438,-12.55619300370217],[-40.011099068466478,-12.561218622139537],[-40.006704622119855,-12.563574155220875],[-39.999792319559162,-12.559332977632682],[-39.993826164045515,-12.555564126681105],[-39.987073878755773,-12.555565277813313],[-39.980884488127913,-12.562082776196974],[-39.98072649433152,-12.562249146278864],[-39.980703320601037,-12.56227360693924]]},"properties":{"OBJECTID":153175,"NORIOCOMP":"Rio Paraguaçu","COCURSODAG":"774","COBACIA":"774717","DEDOMINIAL":"Estadual"}},{"type":"Feature","id":153136,"geometry":{"type":"LineString","coordinates":[[-41.315841980622167,-12.836528861607301],[-41.315372548903262,-12.834212257479432],[-41.312526938366773,-12.828199406467292],[-41.309543609249431,-12.823471107495665],[-41.307769664137936,-12.822480471886347],[-41.296726236725711,-12.819844380004266],[-41.292892356696143,-12.818151613096685],[-41.289310655561565,-12.812422068314158],[-41.289844556979979,-12.806937066283112],[-41.292293456776868,-12.802014297012827],[-41.292098995471513,-12.797547640502028],[-41.290466231330754,-12.795833726935804],[-41.285163920277967,-12.794009261509107],[-41.284118323501104,-12.792433686156659],[-41.28394337658483,-12.789552575781775],[-41.285522289321477,-12.785646400152402],[-41.285480576966336,-12.781465306270151],[-41.283813393972196,-12.776290858128037],[-41.281002224772116,-12.774301383293716],[-41.277268188375444,-12.774213159800972],[-41.276889971294388,-12.774204224137112]]},"properties":{"OBJECTID":153136,"NORIOCOMP":"Rio Paraguaçu","COCURSODAG":"77478","COBACIA":"774781","DEDOMINIAL":"Estadual"}},{"type":"Feature","id":153137,"geometry":{"type":"LineString","coordinates":[[-41.392617110890221,-12.974020038979145],[-41.392133704606067,-12.973788490531977],[-41.391730613176549,-12.97359541328329],[-41.390847147976785,-12.973172210314821],[-41.372135887660363,-12.968888921971887],[-41.362816376074136,-12.963067743467446],[-41.360882468550358,-12.96106995530012],[-41.357911762317265,-12.955582956774151],[-41.357789645175274,-12.955357403207708],[-41.357720559255647,-12.955229799301906],[-41.357540796469834,-12.954897757911304]]},"properties":{"OBJECTID":153137,"NORIOCOMP":"Rio Paraguaçu","COCURSODAG":"77478","COBACIA":"7747835","DEDOMINIAL":"Estadual"}},{"type":"Feature","id":153138,"geometry":{"type":"LineString","coordinates":[[-39.379254591325605,-12.584149457428644],[-39.378655776841867,-12.58385109115207],[-39.352483369411232,-12.57080773788433],[-39.341385947602646,-12.559707136073385],[-39.324082509399538,-12.546975462645774],[-39.317917150455401,-12.545311278890708],[-39.317110213065121,-12.545093422621671],[-39.316662989204872,-12.544972681442401]]},"properties":{"OBJECTID":153138,"NORIOCOMP":"Rio Paraguaçu","COCURSODAG":"774","COBACIA":"774371","DEDOMINIAL":"Estadual"}},{"type":"Feature","id":153139,"geometry":{"type":"LineString","coordinates":[[-40.179133826064458,-12.725638641103339],[-40.1786610092974,-12.714490234929665],[-40.175994326076534,-12.700827443925059],[-40.171752618787593,-12.694859586894289],[-40.16500034788703,-12.694074626236883],[-40.149375253264573,-12.69328798384727],[-40.13665349486218,-12.68842238897609],[-40.120108170754747,-12.686444389491088],[-40.119649002099038,-12.686389430122217],[-40.118399679201111,-12.686240017656809],[-40.117667238051865,-12.686152420991561]]},"properties":{"OBJECTID":153139,"NORIOCOMP":"Rio Paraguaçu","COCURSODAG":"774","COBACIA":"7747351","DEDOMINIAL":"Estadual"}},{"type":"Feature","id":153140,"geometry":{"type":"LineString","coordinates":[[-40.47812452982248,-12.936374353380367],[-40.477811107096159,-12.936538198165977],[-40.477583985112062,-12.936656926662526],[-40.47697013036651,-12.936977766097687],[-40.466406101859377,-12.942498826446181],[-40.462000024580732,-12.942671605996328],[-40.455816040677007,-12.940979942556837],[-40.449182673640735,-12.937992178882569],[-40.445337112317134,-12.933834938618268],[-40.444578225703822,-12.9299460515559],[-40.441320413605467,-12.92621988512658],[-40.433500296700572,-12.920787666105026],[-40.431710854471646,-12.916908244407191],[-40.428482495170272,-12.916852601553572],[-40.426217218049423,-12.916813559285586],[-40.425393629711493,-12.916799364386421]]},"properties":{"OBJECTID":153140,"NORIOCOMP":"Rio Paraguaçu","COCURSODAG":"774","COBACIA":"7747517","DEDOMINIAL":"Estadual"}},{"type":"Feature","id":153141,"geometry":{"type":"LineString","coordinates":[[-41.402974804342996,-13.222010619372806],[-41.4030179331304,-13.221873810006542],[-41.404115325461191,-13.218395140601579],[-41.403298641218548,-13.210762821025936],[-41.40625138799043,-13.197471672158887],[-41.40899810997405,-13.192687160163393],[-41.413789272456199,-13.186583284270386],[-41.418393738379564,-13.176591014143524],[-41.426507628723357,-13.164688095658969],[-41.434091004495549,-13.158412539187424],[-41.44104546187782,-13.148396325510404],[-41.446950521048954,-13.136227471201607],[-41.447473302350261,-13.130021809140104],[-41.445775480353397,-13.122399610534744],[-41.443345480708615,-13.115070661962879],[-41.440633255819364,-13.109188388015241],[-41.439611768067891,-13.105339558555446],[-41.439473737422304,-13.104819477018927]]},"properties":{"OBJECTID":153141,"NORIOCOMP":"Rio Paraguaçu","COCURSODAG":"77478","COBACIA":"7747875","DEDOMINIAL":"Estadual"}},{"type":"Feature","id":153142,"geometry":{"type":"LineString","coordinates":[[-38.892038546041306,-12.757706493052209],[-38.891494023629548,-12.758062701024828],[-38.872148445393691,-12.770714937336075],[-38.860796176401657,-12.782448911879019],[-38.861226724133246,-12.793547817568635],[-38.861226703448892,-12.798302860579344],[-38.858740014139585,-12.804886761305555]]},"properties":{"OBJECTID":153142,"NORIOCOMP":"Rio Paraguaçu","COCURSODAG":"774","COBACIA":"774113","DEDOMINIAL":"Estadual"}},{"type":"Feature","id":153143,"geometry":{"type":"LineString","coordinates":[[-41.276889971294388,-12.774204224137112],[-41.276460886759764,-12.774515422839992],[-41.273681612016048,-12.776531432171261],[-41.273139938656527,-12.781005875911733],[-41.275409431799119,-12.787903698487959],[-41.275592743309737,-12.791504812388142],[-41.273582170380109,-12.796134846936482],[-41.270080510706293,-12.79876428473472],[-41.265972117118793,-12.799236480969551],[-41.25331869010472,-12.796901487504437],[-41.249797551115357,-12.796921005490843]]},"properties":{"OBJECTID":153143,"NORIOCOMP":"Rio Paraguaçu","COCURSODAG":"774","COBACIA":"774777","DEDOMINIAL":"Estadual"}},{"type":"Feature","id":153144,"geometry":{"type":"LineString","coordinates":[[-39.872365289725622,-12.508211238956916],[-39.871739407446967,-12.507822367607588],[-39.870994992723979,-12.507359849876641],[-39.870751351093247,-12.507208470593913],[-39.869252701949904,-12.507213738822424],[-39.868695248186448,-12.507215696646526],[-39.863129649812784,-12.508821821069606],[-39.858433488114258,-12.509126262266578],[-39.855794017479184,-12.508702350632401],[-39.852848997682372,-12.506264010675032],[-39.849915607018886,-12.505698445026701],[-39.846402323607606,-12.507727943289382],[-39.842018893056725,-12.51220906449602],[-39.838505588061707,-12.514671861516423],[-39.830303864531004,-12.518591329125677],[-39.827965514795956,-12.520330809518322],[-39.823288772158385,-12.525390818930038],[-39.81977548155249,-12.527853642030774],[-39.813912105058876,-12.529313638312557],[-39.806873649198792,-12.530203121775443],[-39.802479210946103,-12.531658675406277],[-39.800136961750638,-12.533107605530247],[-39.796772497252221,-12.536720949310926],[-39.792995815903453,-12.542240974539727],[-39.790066387652928,-12.548849904297862],[-39.78192580902811,-12.552851603216984],[-39.776379085625535,-12.552199896905799],[-39.767235107313638,-12.548608225887119],[-39.756462263422009,-12.548608258262735],[-39.754505592258511,-12.551219973121407],[-39.747978283170482,-12.557422164699091],[-39.73883434622735,-12.555463338760058],[-39.731979306199257,-12.551219940745835],[-39.724144265045084,-12.5495888367536],[-39.707172459940352,-12.553179483444502],[-39.684970651073968,-12.557421710541483],[-39.66570999312097,-12.555788978776338],[-39.651999824031918,-12.556444018874346],[-39.63812589469353,-12.561992360157092],[-39.63453642611443,-12.570481287578938],[-39.628630641190398,-12.580115112219948],[-39.628333605910427,-12.580599651649846]]},"properties":{"OBJECTID":153144,"NORIOCOMP":"Rio Paraguaçu","COCURSODAG":"774","COBACIA":"77453","DEDOMINIAL":"Estadual"}},{"type":"Feature","id":153145,"geometry":{"type":"LineString","coordinates":[[-39.536177382379549,-12.580104218731979],[-39.535886525442038,-12.580155498974396],[-39.516687803798391,-12.583538153160406],[-39.493345439639597,-12.588760435342861],[-39.464945228938404,-12.600512776739937],[-39.446665123395974,-12.607695038691533],[-39.440977315250166,-12.61024394309986]]},"properties":{"OBJECTID":153145,"NORIOCOMP":"Rio Paraguaçu","COCURSODAG":"774","COBACIA":"774391","DEDOMINIAL":"Estadual"}},{"type":"Feature","id":153146,"geometry":{"type":"LineString","coordinates":[[-39.440977315250166,-12.61024394309986],[-39.440500721330466,-12.610362160781486],[-39.440383280663127,-12.610391290721887],[-39.439135248292359,-12.610700858953836],[-39.433816682892889,-12.612020090651002],[-39.42087324160611,-12.607370082160017],[-39.411409306993171,-12.601167287137251],[-39.39671859178884,-12.591047816900181],[-39.380168776467151,-12.584510565807092],[-39.379254591325605,-12.584149457428644]]},"properties":{"OBJECTID":153146,"NORIOCOMP":"Rio Paraguaçu","COCURSODAG":"774","COBACIA":"774373","DEDOMINIAL":"Estadual"}},{"type":"Feature","id":153147,"geometry":{"type":"LineString","coordinates":[[-40.5987844067742,-13.001192836065306],[-40.598715046561438,-13.001174647276928],[-40.598535433063034,-13.001127547083364],[-40.597371733717807,-13.000822014109445],[-40.587004853690303,-12.998100088233336],[-40.580832597845358,-12.998428411826573],[-40.567298033077009,-12.997218967566162],[-40.565528038687319,-12.995932869591174],[-40.560813002017717,-12.994235074574011],[-40.558756862238681,-12.994679512334571],[-40.554488011611674,-12.993841253356109],[-40.552267956000605,-12.991550640534646],[-40.549612902812498,-12.989981744447059],[-40.546366586747865,-12.989675034260491],[-40.546279792277865,-12.989666823450213],[-40.545568869207216,-12.989599664777778],[-40.545344012615374,-12.989578424589716]]},"properties":{"OBJECTID":153147,"NORIOCOMP":"Rio Paraguaçu","COCURSODAG":"774","COBACIA":"7747539","DEDOMINIAL":"Estadual"}},{"type":"Feature","id":153148,"geometry":{"type":"LineString","coordinates":[[-40.295707968747024,-12.739471333827504],[-40.295629932774432,-12.739491249314252],[-40.295493566773928,-12.739526049480101],[-40.295374875149605,-12.739556339545967],[-40.281601262487527,-12.743071376635168],[-40.270946749592099,-12.746626996530964]]},"properties":{"OBJECTID":153148,"NORIOCOMP":"Rio Paraguaçu","COCURSODAG":"774","COBACIA":"774737","DEDOMINIAL":"Estadual"}},{"type":"Feature","id":153149,"geometry":{"type":"LineString","coordinates":[[-40.511076480094744,-12.963992249228776],[-40.511057923483634,-12.963896997534256],[-40.511017614070902,-12.963690466427739],[-40.510317616863802,-12.960103897263004],[-40.511477092093401,-12.957935459140165],[-40.512190396568826,-12.954470472920132],[-40.511713749589148,-12.949141602189481],[-40.508757040404362,-12.946275472721249],[-40.506986983961383,-12.945421019650745],[-40.497290254440941,-12.945481003531901],[-40.493757455741274,-12.944638263231681],[-40.489328551870408,-12.941639908241669],[-40.486658510581037,-12.938196008425688],[-40.483270729359958,-12.936631046871979],[-40.482150747857986,-12.936574961551916],[-40.481834882573025,-12.93655915057098],[-40.480695641190152,-12.936502120962757]]},"properties":{"OBJECTID":153149,"NORIOCOMP":"Rio Paraguaçu","COCURSODAG":"774","COBACIA":"7747533","DEDOMINIAL":"Estadual"}},{"type":"Feature","id":153150,"geometry":{"type":"LineString","coordinates":[[-40.654029251048371,-12.996447696388987],[-40.653710149103347,-12.996401366914471],[-40.653095540725872,-12.996312131684407],[-40.649608059763409,-12.995805504005727],[-40.64137578356479,-12.995574965497166],[-40.631663515558046,-12.994342762993073],[-40.625209059649649,-12.995828344987055],[-40.620207892879193,-12.99571778233469],[-40.614028370512131,-12.994750006592467],[-40.607569994458913,-12.996377788489033],[-40.601718300158666,-13.000452842409496],[-40.5987844067742,-13.001192836065306]]},"properties":{"OBJECTID":153150,"NORIOCOMP":"Rio Paraguaçu","COCURSODAG":"774","COBACIA":"774755","DEDOMINIAL":"Estadual"}},{"type":"Feature","id":153113,"geometry":{"type":"LineString","coordinates":[[-38.897817445617875,-12.753925967101816],[-38.897374530409536,-12.754215765537204],[-38.894084159255776,-12.756368336921247],[-38.892038938145731,-12.757706235846081],[-38.89203866834913,-12.757706413012526],[-38.892038546041306,-12.757706493052209]]},"properties":{"OBJECTID":153113,"NORIOCOMP":"Rio Paraguaçu","COCURSODAG":"774","COBACIA":"77413","DEDOMINIAL":"Estadual"}},{"type":"Feature","id":153115,"geometry":{"type":"LineString","coordinates":[[-39.089694026557368,-12.48984933827631],[-39.089470192494666,-12.490040851604011],[-39.057482712056753,-12.517397255178334],[-39.04988500468847,-12.529639549924076],[-39.049368854987904,-12.530471229462457]]},"properties":{"OBJECTID":153115,"NORIOCOMP":"Rio Paraguaçu","COCURSODAG":"774","COBACIA":"774193","DEDOMINIAL":"Estadual"}},{"type":"Feature","id":153116,"geometry":{"type":"LineString","coordinates":[[-41.163458605729318,-12.766251502196781],[-41.162880433384544,-12.766170808727571],[-41.161687580716546,-12.766004326230421],[-41.159911369313534,-12.765756473973868],[-41.152041309458127,-12.772169313754368],[-41.150927425359669,-12.7788099086417],[-41.152460735273962,-12.78585937580071],[-41.154704153473169,-12.790307139354033],[-41.160651430418454,-12.798039423071678],[-41.160849797479443,-12.80365780895132],[-41.159713075097606,-12.807560033858996],[-41.158545286535002,-12.808291742060707],[-41.154719176647973,-12.807748959837125],[-41.151011350092972,-12.804034479198444],[-41.148470722145362,-12.799157241704094],[-41.14521296940228,-12.796302783637389],[-41.143744557264768,-12.796315562104342],[-41.140830179168688,-12.798792239261214],[-41.139677909307359,-12.8012527924731],[-41.139620720519076,-12.810912327832089],[-41.137694026457439,-12.813697343847661],[-41.136519555032692,-12.814034528461034],[-41.13508124410339,-12.812648986152153],[-41.134921262805278,-12.811095638443335],[-41.130774535615622,-12.80724282858419],[-41.12666615641723,-12.80771119730441],[-41.125941164352525,-12.808725653256761],[-41.125307852774426,-12.819831267888844],[-41.124056739326313,-12.827624646150403],[-41.122904504538504,-12.830230190760545],[-41.114451140806743,-12.837657502681205],[-41.113760543313681,-12.842419148514358],[-41.114088941550669,-12.846019153550474],[-41.107863353210462,-12.856308700874878],[-41.103869389360113,-12.869317619101487],[-41.103968730271959,-12.871333289388421],[-41.10397220255436,-12.871404298957827]]},"properties":{"OBJECTID":153116,"NORIOCOMP":"Rio Paraguaçu","COCURSODAG":"774","COBACIA":"774773","DEDOMINIAL":"Estadual"}},{"type":"Feature","id":153117,"geometry":{"type":"LineString","coordinates":[[-41.34824860628742,-13.439747953077386],[-41.343651909607217,-13.438114610672613],[-41.341870793301723,-13.436690703285201],[-41.340787484354166,-13.431656214834492],[-41.34422406998408,-13.421961746209929],[-41.350152454871136,-13.411093926716005],[-41.356755801638201,-13.394308262389538],[-41.362607495938441,-13.375940901924741],[-41.363290284618188,-13.370887574475786],[-41.359654613369003,-13.353154755861643],[-41.359441286985088,-13.339786282385793],[-41.358830777717451,-13.337919079376794],[-41.354947391807968,-13.332478503854823],[-41.353551227606317,-13.327332930245623],[-41.3536768143328,-13.322974565598946],[-41.357148496005543,-13.316885591472275],[-41.353833476233198,-13.309567843956474],[-41.346207819734332,-13.29781947126753],[-41.344990619720598,-13.293938893940899],[-41.344960584162891,-13.290768333168204],[-41.347245614892472,-13.284113289772915],[-41.368542936906287,-13.279583247245602],[-41.372487413762371,-13.27680319458835],[-41.375974123106573,-13.272155911043189],[-41.380513571643291,-13.269950387577104],[-41.386212486416362,-13.266001989676997],[-41.38897863375621,-13.263234254134547],[-41.391059628098617,-13.260223531667727],[-41.391326364319525,-13.259837625383215],[-41.391587522045768,-13.259459770728938]]},"properties":{"OBJECTID":153117,"NORIOCOMP":"Rio Paraguaçu","COCURSODAG":"77478","COBACIA":"7747893","DEDOMINIAL":"Estadual"}},{"type":"Feature","id":153118,"geometry":{"type":"LineString","coordinates":[[-40.117667238051865,-12.686152420991561],[-40.111686080047832,-12.680883485578684],[-40.105559389253706,-12.664707311587911],[-40.098807613879558,-12.652145004783263],[-40.096810484015862,-12.6436946402908],[-40.096253301847646,-12.641336877790105],[-40.096219384816031,-12.641193360380754],[-40.096192110177014,-12.641077953979876],[-40.096060898191183,-12.640522755716056]]},"properties":{"OBJECTID":153118,"NORIOCOMP":"Rio Paraguaçu","COCURSODAG":"774","COBACIA":"774733","DEDOMINIAL":"Estadual"}},{"type":"Feature","id":153119,"geometry":{"type":"LineString","coordinates":[[-40.683277250843723,-13.013025031864123],[-40.670799073817477,-13.002868320701133],[-40.670474884407668,-13.002604443425051]]},"properties":{"OBJECTID":153119,"NORIOCOMP":"Rio Paraguaçu","COCURSODAG":"774","COBACIA":"7747573","DEDOMINIAL":"Estadual"}},{"type":"Feature","id":153120,"geometry":{"type":"LineString","coordinates":[[-39.135886611677051,-12.496705435007602],[-39.134974184710131,-12.496482822224236],[-39.133784619963478,-12.496192615496604],[-39.133720498301606,-12.496176972688923],[-39.122500929673436,-12.493439837478382],[-39.102588104057027,-12.488869841669867],[-39.090609574171765,-12.489779824279418],[-39.089706524435826,-12.489848389491558],[-39.089694026557368,-12.48984933827631]]},"properties":{"OBJECTID":153120,"NORIOCOMP":"Rio Paraguaçu","COCURSODAG":"774","COBACIA":"77431","DEDOMINIAL":"Estadual"}},{"type":"Feature","id":153151,"geometry":{"type":"LineString","coordinates":[[-40.342873354121252,-12.764016978292723],[-40.34103116935222,-12.761610307961202],[-40.339257190066519,-12.759744699450236],[-40.33513332094526,-12.757606421890872],[-40.33042996377106,-12.756909137938402],[-40.328369941618746,-12.755768598833839],[-40.322896031825685,-12.748735232237443],[-40.321720981237547,-12.748600252991546],[-40.31950814358521,-12.747167490879294],[-40.317597075244066,-12.746604110583533],[-40.313038671696631,-12.745474650227255],[-40.307434737022731,-12.74147021916775],[-40.301842508823995,-12.739048003155357],[-40.297734112538535,-12.739793026719319],[-40.296161086764016,-12.73954327869188],[-40.295707968747024,-12.739471333827504]]},"properties":{"OBJECTID":153151,"NORIOCOMP":"Rio Paraguaçu","COCURSODAG":"774","COBACIA":"774739","DEDOMINIAL":"Estadual"}},{"type":"Feature","id":153152,"geometry":{"type":"LineString","coordinates":[[-38.927492599103402,-12.707619512523969],[-38.92710565230329,-12.708784162452568],[-38.924554820647707,-12.716460690901389],[-38.919706485565143,-12.723234081480683],[-38.916349814591513,-12.730652459536183],[-38.910940313344042,-12.73760967244101],[-38.904745289362893,-12.740914188131748],[-38.901342491262191,-12.749605380276288],[-38.897817612891799,-12.753925762056351],[-38.897817445617875,-12.753925967101816]]},"properties":{"OBJECTID":153152,"NORIOCOMP":"Rio Paraguaçu","COCURSODAG":"774","COBACIA":"77415","DEDOMINIAL":"Estadual"}},{"type":"Feature","id":153153,"geometry":{"type":"LineString","coordinates":[[-39.959852092899041,-12.554601354766756],[-39.959806490976064,-12.555755827067765],[-39.957458422267621,-12.555459336776982],[-39.953783157465978,-12.55499527401069],[-39.939881850965882,-12.550853009257134],[-39.934234732646075,-12.54660378543463],[-39.932880503831427,-12.545584680886614],[-39.932592375437025,-12.545367854341336],[-39.93210020705817,-12.544997480247844]]},"properties":{"OBJECTID":153153,"NORIOCOMP":"Rio Paraguaçu","COCURSODAG":"774","COBACIA":"774713","DEDOMINIAL":"Estadual"}},{"type":"Feature","id":153154,"geometry":{"type":"LineString","coordinates":[[-40.425393629711493,-12.916799364386421],[-40.42523747592805,-12.91521431017958],[-40.426839661320571,-12.912898699802522],[-40.426828042079762,-12.911457043395222],[-40.423849164606516,-12.904555936494868],[-40.423505783664268,-12.896343120726318],[-40.421716314455637,-12.892459763595182],[-40.420087471358961,-12.890451986657869],[-40.419187517089483,-12.882583079733603],[-40.419000192803935,-12.88094468044096],[-40.418211881272555,-12.879526376729292],[-40.417962978607818,-12.879078559316442]]},"properties":{"OBJECTID":153154,"NORIOCOMP":"Rio Paraguaçu","COCURSODAG":"774","COBACIA":"7747515","DEDOMINIAL":"Estadual"}},{"type":"Feature","id":153155,"geometry":{"type":"LineString","coordinates":[[-40.096060898191183,-12.640522755716056],[-40.085696421152193,-12.632829362280969],[-40.075171328793033,-12.62544881240869],[-40.064494005493202,-12.616183196293694],[-40.055071690605295,-12.609587079176784],[-40.048788841531064,-12.605348220040828],[-40.048555998959444,-12.595610972465202],[-40.046042132137934,-12.57566577845034],[-40.043402270297804,-12.56566108868601],[-40.043136460378605,-12.564653601580213],[-40.043058755356526,-12.564359081704012]]},"properties":{"OBJECTID":153155,"NORIOCOMP":"Rio Paraguaçu","COCURSODAG":"774","COBACIA":"774731","DEDOMINIAL":"Estadual"}},{"type":"Feature","id":153156,"geometry":{"type":"LineString","coordinates":[[-40.480695641190152,-12.936502120962757],[-40.480380989989953,-12.93648648534969],[-40.47812452982248,-12.936374353380367]]},"properties":{"OBJECTID":153156,"NORIOCOMP":"Rio Paraguaçu","COCURSODAG":"774","COBACIA":"7747531","DEDOMINIAL":"Estadual"}},{"type":"Feature","id":153157,"geometry":{"type":"LineString","coordinates":[[-40.270946749592099,-12.746626996530964],[-40.270862951663162,-12.746646948889879],[-40.270361910573001,-12.746766436414203],[-40.258201601621863,-12.749666429854051],[-40.240772658530602,-12.754220916853926],[-40.228523106255636,-12.758773767986941],[-40.216430819326099,-12.759716042553265],[-40.212505243521427,-12.75798931454718],[-40.206066300019017,-12.751707036542694],[-40.20214066485903,-12.74511369293492],[-40.191619489946788,-12.739302023861859],[-40.18415833563796,-12.733490876395544],[-40.180685838280056,-12.728064311411682],[-40.18000991052822,-12.727007892193367],[-40.179133826064458,-12.725638641103339]]},"properties":{"OBJECTID":153157,"NORIOCOMP":"Rio Paraguaçu","COCURSODAG":"774","COBACIA":"7747353","DEDOMINIAL":"Estadual"}},{"type":"Feature","id":153158,"geometry":{"type":"LineString","coordinates":[[-41.02804394497133,-12.911512375982793],[-41.027857135997294,-12.911602687701304],[-41.027229544107456,-12.911906091080642],[-41.027013438818415,-12.912010555430172],[-41.024473382839631,-12.913238515832187],[-41.021975018531521,-12.913116270986466],[-41.016081076779521,-12.911435139507496],[-41.00931771004354,-12.910771320227663],[-41.003172136184389,-12.914139641018936],[-40.998811544816192,-12.919795753458446],[-40.995733193331489,-12.920686939337903],[-40.994402033926008,-12.919401387251407],[-40.992738736003105,-12.914080764203266],[-40.990205882694561,-12.909920763020237],[-40.987703060447132,-12.909219671338253],[-40.984910917304269,-12.909387455154404],[-40.982728664695401,-12.911999658344934],[-40.983819775261679,-12.919344712875391],[-40.982660312622613,-12.921226367989615],[-40.977540815755333,-12.924150322966085],[-40.977132470486367,-12.928046440577669],[-40.979364172317958,-12.931056981381394],[-40.983655903496413,-12.934623140432338],[-40.986040378559892,-12.93835368655999],[-40.987844263001584,-12.942951489406179],[-40.988321505332465,-12.947126513763946],[-40.986040399244303,-12.955504864144247],[-40.993612131493933,-12.964526600308172],[-40.993662150886792,-12.970145488009539],[-40.987985364832014,-12.976682236381585],[-40.985494879484349,-12.977422174279388],[-40.979757063636839,-12.977036141190414],[-40.978868674648879,-12.976322769265845],[-40.973710871159028,-12.974922791039484],[-40.968416379711414,-12.974246104259821],[-40.963129116115056,-12.9748655878621],[-40.960359687149086,-12.977483361453409],[-40.959081299061957,-12.983258411931429],[-40.959013043216657,-12.992487314123245],[-40.961008051579597,-13.005497416757008],[-40.961290282220027,-13.00734741663457],[-40.959447539871348,-13.008489094280797],[-40.956403564971822,-13.014128571960415],[-40.952546882631793,-13.027711425825627],[-40.950220234875189,-13.030469773345265],[-40.946271851364081,-13.032952017305588],[-40.938611804790241,-13.031426998241253],[-40.933301798238688,-13.029161989118434],[-40.930356781139778,-13.028753138430544],[-40.927434539371745,-13.031083708130476],[-40.92691563055115,-13.039160405212126],[-40.924428371971032,-13.040911555207659],[-40.922689268394272,-13.040697197301412],[-40.922223942080507,-13.04063983674267],[-40.921325067896817,-13.040005481951036],[-40.920572464846657,-13.039474297384535],[-40.920003354970113,-13.039072620588607]]},"properties":{"OBJECTID":153158,"NORIOCOMP":"Rio Paraguaçu","COCURSODAG":"774","COBACIA":"7747597","DEDOMINIAL":"Estadual"}},{"type":"Feature","id":153159,"geometry":{"type":"LineString","coordinates":[[-41.439473737422304,-13.104819477018927],[-41.439341235808627,-13.10432324100649],[-41.438798220660601,-13.102288344113539],[-41.440160390488863,-13.091896661683675],[-41.444970453123183,-13.074114901064391],[-41.445802093091395,-13.069204270843152],[-41.444802996660258,-13.061615041384005],[-41.444684330216944,-13.060713127491811],[-41.444533245911821,-13.060201061612675],[-41.444207661653529,-13.059097565583224]]},"properties":{"OBJECTID":153159,"NORIOCOMP":"Rio Paraguaçu","COCURSODAG":"77478","COBACIA":"7747873","DEDOMINIAL":"Estadual"}},{"type":"Feature","id":153160,"geometry":{"type":"LineString","coordinates":[[-41.10397220255436,-12.871404298957827],[-41.104304010121211,-12.871921339886502],[-41.108801700437375,-12.878929894187653],[-41.1095644622294,-12.881663195588297],[-41.109453950838429,-12.885701603034738],[-41.107432282972759,-12.889754968904722],[-41.10264449025027,-12.896282798700046],[-41.089129362529313,-12.896975544673502],[-41.08056154028214,-12.891861691052171],[-41.077616482713779,-12.891167230071609],[-41.074099269265098,-12.892062822629164],[-41.070604748409664,-12.895552279402036],[-41.066561470234944,-12.903658932901076],[-41.061102525160663,-12.917830153825763],[-41.059653081523777,-12.919860677315556],[-41.054464984370782,-12.924407267368526],[-41.053996603060057,-12.924817698165276],[-41.05373250455068,-12.92504912160666]]},"properties":{"OBJECTID":153160,"NORIOCOMP":"Rio Paraguaçu","COCURSODAG":"774","COBACIA":"774771","DEDOMINIAL":"Estadual"}}]}